NORAD_CAT_ID,OBJECT_NAME,OBJECT_TYPE,EPOCH,MEAN_MOTION,ECCENTRICITY,INCLINATION,RA_OF_ASC_NODE,ARG_OF_PERICENTER,MEAN_ANOMALY,BSTAR,MEAN_MOTION_DOT,MEAN_MOTION_DDOT,TLE_LINE0,TLE_LINE1,TLE_LINE2,SEMIMAJOR_AXIS,PERIOD,APOGEE,PERIGEE,DECAYED
49423.0,STARLINK-3149,PAYLOAD,2024-07-15 23:20:17,15.08840807,0.0001301,53.2168,50.5283,86.9919,273.1222,3.88e-05,3.3e-06,0.0,0 STARLINK-3149,1 49423U 21104R   24197.97241964  .00000330  00000-0  38800-4 0  9994,2 49423  53.2168  50.5283 0001301  86.9919 273.1222 15.08840807147786,6917.878,95.438,540.643,538.843,0.0
49423.0,STARLINK-3149,PAYLOAD,2024-07-16 21:35:40,15.08848023,0.0001188,53.217,46.3678,69.8181,290.2939,0.00020196,2.928e-05,0.0,0 STARLINK-3149,1 49423U 21104R   24198.89977715  .00002928  00000-0  20196-3 0  9999,2 49423  53.2170  46.3678 0001188  69.8181 290.2939 15.08848023149015,6917.856,95.437,540.543,538.899,0.0
49423.0,STARLINK-3149,PAYLOAD,2024-07-17 07:07:59,15.08841338,9.94e-05,53.2177,44.5821,79.9113,280.1992,9.6991e-05,1.256e-05,0.0,0 STARLINK-3149,1 49423U 21104R   24199.29721900  .00001256  00000-0  96991-4 0  9997,2 49423  53.2177  44.5821 0000994  79.9113 280.1992 15.08841338149078,6917.876,95.437,540.429,539.054,0.0
49423.0,STARLINK-3149,PAYLOAD,2024-07-17 19:51:05,15.08837598,0.0001203,53.2177,42.1987,100.0057,260.1071,-1.444e-05,-5.18e-06,0.0,0 STARLINK-3149,1 49423U 21104R   24199.82714345 -.00000518  00000-0 -14440-4 0  9992,2 49423  53.2177  42.1987 0001203 100.0057 260.1071 15.08837598148069,6917.888,95.438,540.585,538.921,0.0
49423.0,STARLINK-3149,PAYLOAD,2024-07-17 23:01:51,15.08842483,0.0001197,53.2179,41.603,103.3298,256.7828,4.9914e-05,5.07e-06,0.0,0 STARLINK-3149,1 49423U 21104R   24199.95962088  .00000507  00000-0  49914-4 0  9995,2 49423  53.2179  41.6030 0001197 103.3298 256.7828 15.08842483148081,6917.873,95.437,540.566,538.91,0.0
49423.0,STARLINK-3149,PAYLOAD,2024-07-18 19:41:52,15.0884372,0.0001243,53.2177,37.7401,79.501,280.6123,1.5256e-05,-4.5e-07,0.0,0 STARLINK-3149,1 49423U 21104R   24200.82074392 -.00000045  00000-0  15256-4 0  9996,2 49423  53.2177  37.7401 0001243  79.5010 280.6123 15.08843720149300,6917.869,95.437,540.594,538.874,0.0
49423.0,STARLINK-3149,PAYLOAD,2024-07-18 22:52:38,15.08846395,0.0001271,53.2187,37.1381,109.4393,250.6737,5.5683e-05,5.99e-06,0.0,0 STARLINK-3149,1 49423U 21104R   24200.95322092  .00000599  00000-0  55683-4 0  9994,2 49423  53.2187  37.1381 0001271 109.4393 250.6737 15.08846395148230,6917.861,95.437,540.605,538.847,0.0
49423.0,STARLINK-3149,PAYLOAD,2024-07-19 19:32:39,15.08845434,0.0001035,53.2173,33.273,101.8569,258.254,9.3815e-05,1.206e-05,0.0,0 STARLINK-3149,1 49423U 21104R   24201.81434148  .00001206  00000-0  93815-4 0  9991,2 49423  53.2173  33.2730 0001035 101.8569 258.2540 15.08845434148362,6917.864,95.437,540.445,539.013,0.0
49423.0,STARLINK-3149,PAYLOAD,2024-07-20 19:23:26,15.08844292,9.97e-05,53.2163,28.8168,64.7951,295.3145,7.8866e-05,9.68e-06,0.0,0 STARLINK-3149,1 49423U 21104R   24202.80794521  .00000968  00000-0  78866-4 0  9998,2 49423  53.2163  28.8168 0000997  64.7951 295.3145 15.08844292149606,6917.867,95.437,540.422,539.043,0.0
49423.0,STARLINK-3149,PAYLOAD,2024-07-21 04:55:45,15.08845063,0.0001199,53.217,27.0337,58.2354,301.8755,7.1344e-05,8.48e-06,0.0,0 STARLINK-3149,1 49423U 21104R   24203.20538460  .00000848  00000-0  71344-4 0  9992,2 49423  53.2170  27.0337 0001199  58.2354 301.8755 15.08845063148575,6917.865,95.437,540.559,538.9,0.0
49423.0,STARLINK-3149,PAYLOAD,2024-07-21 17:38:50,15.08837695,0.0001363,53.2184,24.6628,116.6489,243.4643,-3.0424e-05,-7.72e-06,0.0,0 STARLINK-3149,1 49423U 21104R   24203.73530877 -.00000772  00000-0 -30424-4 0  9996,2 49423  53.2184  24.6628 0001363 116.6489 243.4643 15.08837695149746,6917.887,95.438,540.695,538.81,0.0
49423.0,STARLINK-3149,PAYLOAD,2024-07-23 04:37:19,15.08849509,0.0001246,53.2179,18.1152,64.5648,295.5473,0.0001535,2.157e-05,0.0,0 STARLINK-3149,1 49423U 21104R   24205.19258501  .00002157  00000-0  15350-3 0  9996,2 49423  53.2179  18.1152 0001246  64.5648 295.5473 15.08849509149968,6917.851,95.437,540.578,538.854,0.0
49423.0,STARLINK-3149,PAYLOAD,2024-07-25 20:12:45,15.08846533,0.0001347,53.2183,6.2227,67.3996,292.7139,0.0001743,2.488e-05,0.0,0 STARLINK-3149,1 49423U 21104R   24207.84219073  .00002488  00000-0  17430-3 0  9999,2 49423  53.2183   6.2227 0001347  67.3996 292.7139 15.08846533150361,6917.86,95.437,540.657,538.794,0.0
49423.0,STARLINK-3149,PAYLOAD,2024-07-26 04:09:41,15.0884495,0.000142,53.2184,4.7351,66.3855,293.7286,0.00015377,2.16e-05,0.0,0 STARLINK-3149,1 49423U 21104R   24208.17339181  .00002160  00000-0  15377-3 0  9994,2 49423  53.2184   4.7351 0001420  66.3855 293.7286 15.08844950149327,6917.865,95.437,540.713,538.748,0.0
49423.0,STARLINK-3149,PAYLOAD,2024-07-26 18:28:08,15.08850676,0.0001096,53.2163,2.0575,80.7993,279.3123,0.00015328,2.153e-05,0.0,0 STARLINK-3149,1 49423U 21104R   24208.76954420  .00002153  00000-0  15328-3 0  9996,2 49423  53.2163   2.0575 0001096  80.7993 279.3123 15.08850676149417,6917.848,95.437,540.471,538.955,0.0
49423.0,STARLINK-3149,PAYLOAD,2024-07-27 10:22:01,15.08832666,0.00013,53.2144,359.0833,84.1042,276.0098,-0.00016661,-2.938e-05,0.0,0 STARLINK-3149,1 49423U 21104R   24209.43195669 -.00002938  00000-0 -16661-3 0  9997,2 49423  53.2144 359.0833 0001300  84.1042 276.0098 15.08832666150606,6917.903,95.438,540.667,538.868,0.0
49423.0,STARLINK-3149,PAYLOAD,2024-07-27 19:54:20,15.08836516,0.0001289,53.2159,357.2997,83.6266,276.4873,-8.3717e-05,-1.62e-05,0.0,0 STARLINK-3149,1 49423U 21104R   24209.82940000 -.00001620  00000-0 -83717-4 0  9991,2 49423  53.2159 357.2997 0001289  83.6266 276.4873 15.08836516149578,6917.891,95.438,540.648,538.864,0.0
49423.0,STARLINK-3149,PAYLOAD,2024-07-28 13:23:33,15.08845867,0.0001265,53.2178,354.0287,84.1133,276.0004,5.8154e-06,-1.95e-06,0.0,0 STARLINK-3149,1 49423U 21104R   24210.55803077 -.00000195  00000-0  58154-5 0  9998,2 49423  53.2178 354.0287 0001265  84.1133 276.0004 15.08845867150774,6917.862,95.437,540.603,538.852,0.0
49423.0,STARLINK-3149,PAYLOAD,2024-07-28 16:34:19,15.08864294,0.0001076,53.2196,353.4323,104.2953,255.8158,-0.00015146,-2.699e-05,0.0,0 STARLINK-3149,1 49423U 21104R   24210.69050352 -.00002699  00000-0 -15146-3 0  9997,2 49423  53.2196 353.4323 0001076 104.2953 255.8158 15.08864294150794,6917.806,95.436,540.415,538.927,0.0
49423.0,STARLINK-3149,PAYLOAD,2024-07-28 21:20:28,15.08853028,0.0001325,53.2184,352.541,98.4973,261.6169,0.00024662,3.641e-05,0.0,0 STARLINK-3149,1 49423U 21104R   24210.88921794  .00003641  00000-0  24662-3 0  9994,2 49423  53.2184 352.5410 0001325  98.4973 261.6169 15.08853028149733,6917.841,95.437,540.622,538.789,0.0
49423.0,STARLINK-3149,PAYLOAD,2024-07-29 02:06:40,15.08823978,0.0001262,53.2188,351.6498,93.3527,266.7609,-1.4501e-05,-5.18e-06,0.0,0 STARLINK-3149,1 49423U 21104R   24211.08796361 -.00000518  00000-0 -14501-4 0  9991,2 49423  53.2188 351.6498 0001262  93.3527 266.7609 15.08823978150853,6917.929,95.439,540.667,538.921,0.0
49423.0,STARLINK-3149,PAYLOAD,2024-07-29 10:03:35,15.08826725,8.81e-05,53.2199,350.1625,85.9728,274.1365,2.5623e-05,1.2e-06,0.0,0 STARLINK-3149,1 49423U 21104R   24211.41916299  .00000120  00000-0  25623-4 0  9996,2 49423  53.2199 350.1625 0000881  85.9728 274.1365 15.08826725149816,6917.921,95.438,540.395,539.176,0.0
49423.0,STARLINK-3149,PAYLOAD,2024-07-29 19:35:53,15.08844467,0.0001274,53.2184,348.3785,90.3085,269.8054,0.00018191,2.609e-05,0.0,0 STARLINK-3149,1 49423U 21104R   24211.81658948  .00002609  00000-0  18191-3 0  9999,2 49423  53.2184 348.3785 0001274  90.3085 269.8054 15.08844467150966,6917.867,95.437,540.613,538.85,0.0
49423.0,STARLINK-3149,PAYLOAD,2024-07-30 01:57:26,15.08838402,0.0001518,53.2187,347.1885,83.6953,276.4212,6.2349e-05,7.04e-06,0.0,0 STARLINK-3149,1 49423U 21104R   24212.08155680  .00000704  00000-0  62349-4 0  9993,2 49423  53.2187 347.1885 0001518  83.6953 276.4212 15.08838402151005,6917.885,95.438,540.8,538.7,0.0
49423.0,STARLINK-3149,PAYLOAD,2024-07-30 09:54:22,15.08837292,0.0001535,53.2206,345.7074,94.3911,265.7256,-9.6991e-05,-1.831e-05,0.0,0 STARLINK-3149,1 49423U 21104R   24212.41276438 -.00001831  00000-0 -96991-4 0  9999,2 49423  53.2206 345.7074 0001535  94.3911 265.7256 15.08837292149960,6917.889,95.438,540.816,538.692,0.0
49423.0,STARLINK-3149,PAYLOAD,2024-07-30 17:51:18,15.08843283,0.0001806,53.2183,344.2169,90.5079,269.612,-8.71e-05,-1.674e-05,0.0,0 STARLINK-3149,1 49423U 21104R   24212.74396051 -.00001674  00000-0 -87100-4 0  9996,2 49423  53.2183 344.2169 0001806  90.5079 269.6120 15.08843283150015,6917.87,95.437,540.985,538.486,0.0
49423.0,STARLINK-3149,PAYLOAD,2024-07-31 12:55:56,15.08831866,0.0001341,53.2211,340.6449,90.2146,269.9,0.0001095,1.455e-05,0.0,0 STARLINK-3149,1 49423U 21104R   24213.53884348  .00001455  00000-0  10950-3 0  9998,2 49423  53.2211 340.6449 0001341  90.2146 269.9000 15.08831866151222,6917.905,95.438,540.698,538.843,0.0
49423.0,STARLINK-3149,PAYLOAD,2024-07-31 14:31:19,15.08840221,9.67e-05,53.2204,340.3486,72.6719,287.4379,1.458e-06,-2.65e-06,0.0,0 STARLINK-3149,1 49423U 21104R   24213.60508109 -.00000265  00000-0  14580-5 0  9998,2 49423  53.2204 340.3486 0000967  72.6719 287.4379 15.08840221150144,6917.88,95.438,540.414,539.076,0.0
49423.0,STARLINK-3149,PAYLOAD,2024-07-31 17:42:04,15.08849598,0.0001226,53.2181,339.7546,98.9541,261.159,8.6382e-05,1.088e-05,0.0,0 STARLINK-3149,1 49423U 21104R   24213.73755216  .00001088  00000-0  86382-4 0  9996,2 49423  53.2181 339.7546 0001226  98.9541 261.1590 15.08849598151253,6917.851,95.437,540.564,538.868,0.0
49423.0,STARLINK-3149,PAYLOAD,2024-08-01 01:39:00,15.08841052,0.0001472,53.2191,338.2664,83.8548,276.2612,9.2108e-05,1.178e-05,0.0,0 STARLINK-3149,1 49423U 21104R   24214.06875848  .00001178  00000-0  92108-4 0  9990,2 49423  53.2191 338.2664 0001472  83.8548 276.2612 15.08841052151307,6917.877,95.437,540.76,538.724,0.0
